NORAD_CAT_ID,OBJECT_NAME,OBJECT_TYPE,EPOCH,MEAN_MOTION,ECCENTRICITY,INCLINATION,RA_OF_ASC_NODE,ARG_OF_PERICENTER,MEAN_ANOMALY,BSTAR,MEAN_MOTION_DOT,MEAN_MOTION_DDOT,TLE_LINE0,TLE_LINE1,TLE_LINE2,SEMIMAJOR_AXIS,PERIOD,APOGEE,PERIGEE,DECAYED
51802.0,STARLINK-3557,PAYLOAD,2023-07-19 18:41:49,15.08839789,0.0001275,53.219,356.2729,89.0305,271.0833,-8.9629e-05,-1.714e-05,0.0,0 STARLINK-3557,1 51802U 22017AL  23200.77904812 -.00001714  00000-0 -89629-4 0  9996,2 51802  53.2190 356.2729 0001275  89.0305 271.0833 15.08839789 78403,6917.881,95.438,540.628,538.864,0.0
51802.0,STARLINK-3557,PAYLOAD,2023-07-20 18:32:35,15.08849867,0.0001377,53.2188,351.8113,92.5749,267.5401,0.00014114,1.96e-05,0.0,0 STARLINK-3557,1 51802U 22017AL  23201.77263740  .00001960  00000-0  14114-3 0  9992,2 51802  53.2188 351.8113 0001377  92.5749 267.5401 15.08849867 78557,6917.85,95.437,540.668,538.763,0.0
51802.0,STARLINK-3557,PAYLOAD,2023-07-21 10:26:28,15.08834666,0.0001279,53.219,348.837,96.4305,263.6833,8.2435e-05,1.024e-05,0.0,0 STARLINK-3557,1 51802U 22017AL  23202.43505093  .00001024  00000-0  82435-4 0  9999,2 51802  53.2190 348.8370 0001279  96.4305 263.6833 15.08834666 78651,6917.897,95.438,540.646,538.877,0.0
51802.0,STARLINK-3557,PAYLOAD,2023-07-24 08:23:26,15.08848514,0.0001851,53.2173,335.7536,123.9094,236.2074,-3.7091e-05,-8.79e-06,0.0,0 STARLINK-3557,1 51802U 22017AL  23205.34960815 -.00000879  00000-0 -37091-4 0  9996,2 51802  53.2173 335.7536 0001851 123.9094 236.2074 15.08848514 79097,6917.854,95.437,541.0,538.439,0.0
51802.0,STARLINK-3557,PAYLOAD,2023-07-25 08:14:13,15.08840941,0.0001861,53.2167,331.2929,115.61,244.5085,6.3114e-05,7.16e-06,0.0,0 STARLINK-3557,1 51802U 22017AL  23206.34320863  .00000716  00000-0  63114-4 0  9993,2 51802  53.2167 331.2929 0001861 115.6100 244.5085 15.08840941 79241,6917.878,95.437,541.03,538.455,0.0
51802.0,STARLINK-3557,PAYLOAD,2023-07-26 08:05:00,15.08839763,0.0001075,53.2185,326.8353,92.0778,268.0338,4.697e-05,4.6e-06,0.0,0 STARLINK-3557,1 51802U 22017AL  23207.33681038  .00000460  00000-0  46970-4 0  9994,2 51802  53.2185 326.8353 0001075  92.0778 268.0338 15.08839763 79396,6917.881,95.438,540.49,539.002,0.0
51802.0,STARLINK-3557,PAYLOAD,2023-07-26 17:37:18,15.08845285,0.0001657,53.2181,325.0502,88.385,271.7332,8.7246e-05,1.101e-05,0.0,0 STARLINK-3557,1 51802U 22017AL  23207.73424597  .00001101  00000-0  87246-4 0  9997,2 51802  53.2181 325.0502 0001657  88.3850 271.7332 15.08845285 79452,6917.864,95.437,540.876,538.583,0.0
51802.0,STARLINK-3557,PAYLOAD,2023-07-27 07:55:47,15.08834022,0.0001056,53.2187,322.3771,73.0396,287.0712,8.8136e-06,-1.48e-06,0.0,0 STARLINK-3557,1 51802U 22017AL  23208.33041413 -.00000148  00000-0  88136-5 0  9997,2 51802  53.2187 322.3771 0001056  73.0396 287.0712 15.08834022 79544,6917.899,95.438,540.494,539.033,0.0
51802.0,STARLINK-3557,PAYLOAD,2023-07-28 14:08:07,15.08838575,9.06e-05,53.2192,316.7259,95.2413,264.8682,-3.5398e-05,-8.51e-06,0.0,0 STARLINK-3557,1 51802U 22017AL  23209.58897537 -.00000851  00000-0 -35398-4 0  9994,2 51802  53.2192 316.7259 0000906  95.2413 264.8682 15.08838575 79734,6917.885,95.438,540.377,539.123,0.0
51802.0,STARLINK-3557,PAYLOAD,2023-07-29 15:34:17,15.08842886,0.0001037,53.2179,311.9675,93.3102,266.8009,0.00017094,2.434e-05,0.0,0 STARLINK-3557,1 51802U 22017AL  23210.64880989  .00002434  00000-0  17094-3 0  9995,2 51802  53.2179 311.9675 0001037  93.3102 266.8009 15.08842886 79890,6917.872,95.437,540.454,539.019,0.0
51802.0,STARLINK-3557,PAYLOAD,2023-07-30 10:38:55,15.08833981,0.0001168,53.2178,308.3997,97.4466,262.6658,6.0739e-05,6.79e-06,0.0,0 STARLINK-3557,1 51802U 22017AL  23211.44370245  .00000679  00000-0  60739-4 0  9997,2 51802  53.2178 308.3997 0001168  97.4466 262.6658 15.08833981 80015,6917.899,95.438,540.572,538.956,0.0
51802.0,STARLINK-3557,PAYLOAD,2023-07-30 17:00:28,15.088418,0.0001257,53.2185,307.2103,91.8107,268.3029,0.00012274,1.666e-05,0.0,0 STARLINK-3557,1 51802U 22017AL  23211.70865793  .00001666  00000-0  12274-3 0  9990,2 51802  53.2185 307.2103 0001257  91.8107 268.3029 15.08841800 80057,6917.875,95.437,540.609,538.87,0.0
51802.0,STARLINK-3557,PAYLOAD,2023-08-01 10:20:29,15.08843081,0.0001318,53.2172,299.4784,88.4942,271.6201,8.1596e-05,1.011e-05,0.0,0 STARLINK-3557,1 51802U 22017AL  23213.43089628  .00001011  00000-0  81596-4 0  9995,2 51802  53.2172 299.4784 0001318  88.4942 271.6201 15.08843081 80318,6917.871,95.437,540.648,538.824,0.0
51802.0,STARLINK-3557,PAYLOAD,2023-08-02 05:25:07,15.08838839,0.0001359,53.2173,295.9115,71.8069,288.3071,4.4256e-05,4.16e-06,0.0,0 STARLINK-3557,1 51802U 22017AL  23214.22577916  .00000416  00000-0  44256-4 0  9995,2 51802  53.2173 295.9115 0001359  71.8069 288.3071 15.08838839 80437,6917.884,95.438,540.689,538.809,0.0
51802.0,STARLINK-3557,PAYLOAD,2023-08-02 13:22:02,15.0884618,0.0001254,53.2176,294.4235,78.9051,281.2082,6.6986e-05,7.79e-06,0.0,0 STARLINK-3557,1 51802U 22017AL  23214.55697519  .00000779  00000-0  66986-4 0  9999,2 51802  53.2176 294.4235 0001254  78.9051 281.2082 15.08846180 80487,6917.861,95.437,540.594,538.859,0.0
51802.0,STARLINK-3557,PAYLOAD,2023-08-04 09:52:51,15.08833378,0.0001438,53.2174,286.0963,98.7234,261.3921,-1.2877e-05,-4.93e-06,0.0,0 STARLINK-3557,1 51802U 22017AL  23216.41170348 -.00000493  00000-0 -12877-4 0  9997,2 51802  53.2174 286.0963 0001438  98.7234 261.3921 15.08833378 80764,6917.901,95.438,540.76,538.771,0.0
51802.0,STARLINK-3557,PAYLOAD,2023-08-05 03:22:05,15.08844202,0.000171,53.217,282.8244,110.4324,249.6852,-7.7504e-05,-1.522e-05,0.0,0 STARLINK-3557,1 51802U 22017AL  23217.14034077 -.00001522  00000-0 -77504-4 0  9998,2 51802  53.2170 282.8244 0001710 110.4324 249.6852 15.08844202 80873,6917.868,95.437,540.916,538.55,0.0
51802.0,STARLINK-3557,PAYLOAD,2023-08-05 09:43:36,15.08862214,0.0002038,53.2166,281.6348,129.5218,230.5955,-1.2161e-05,-4.82e-06,0.0,0 STARLINK-3557,1 51802U 22017AL  23217.40528507 -.00000482  00000-0 -12161-4 0  9995,2 51802  53.2166 281.6348 0002038 129.5218 230.5955 15.08862214 80918,6917.812,95.436,541.087,538.268,0.0
51802.0,STARLINK-3557,PAYLOAD,2023-08-05 11:19:01,15.08841458,0.0001363,53.2169,281.3388,87.2581,272.8567,-6.2562e-07,-2.98e-06,0.0,0 STARLINK-3557,1 51802U 22017AL  23217.47153943 -.00000298  00000-0 -62562-6 0  9997,2 51802  53.2169 281.3388 0001363  87.2581 272.8567 15.08841458 80921,6917.876,95.437,540.684,538.798,0.0
51802.0,STARLINK-3557,PAYLOAD,2023-08-05 20:51:19,15.08846094,0.0001312,53.2167,279.5551,95.9198,264.1943,5.8461e-05,6.43e-06,0.0,0 STARLINK-3557,1 51802U 22017AL  23217.86897357  .00000643  00000-0  58461-4 0  9997,2 51802  53.2167 279.5551 0001312  95.9198 264.1943 15.08846094 80983,6917.862,95.437,540.634,538.819,0.0
51802.0,STARLINK-3557,PAYLOAD,2023-08-06 11:09:48,15.08833629,0.0001274,53.2172,276.88,103.8385,256.2749,0.0001001,1.305e-05,0.0,0 STARLINK-3557,1 51802U 22017AL  23218.46514113  .00001305  00000-0  10010-3 0  9993,2 51802  53.2172 276.8800 0001274 103.8385 256.2749 15.08833629 81077,6917.9,95.438,540.646,538.884,0.0
51802.0,STARLINK-3557,PAYLOAD,2023-08-08 02:54:26,15.08839514,0.0001306,53.2177,269.4464,105.5993,254.5143,0.00011993,1.621e-05,0.0,0 STARLINK-3557,1 51802U 22017AL  23220.12114257  .00001621  00000-0  11993-3 0  9996,2 51802  53.2177 269.4464 0001306 105.5993 254.5143 15.08839514 81322,6917.882,95.438,540.65,538.843,0.0
51802.0,STARLINK-3557,PAYLOAD,2023-08-08 10:51:21,15.08847092,0.0001239,53.2173,267.9592,103.2428,256.8703,0.00017068,2.43e-05,0.0,0 STARLINK-3557,1 51802U 22017AL  23220.45233771  .00002430  00000-0  17068-3 0  9993,2 51802  53.2173 267.9592 0001239 103.2428 256.8703 15.08847092 81378,6917.859,95.437,540.581,538.867,0.0
51802.0,STARLINK-3557,PAYLOAD,2023-08-09 02:45:14,15.08835131,0.0001364,53.2161,264.9872,85.8972,274.2176,0.00013853,1.917e-05,0.0,0 STARLINK-3557,1 51802U 22017AL  23221.11474818  .00001917  00000-0  13853-3 0  9993,2 51802  53.2161 264.9872 0001364  85.8972 274.2176 15.08835131 81471,6917.895,95.438,540.704,538.817,0.0
51802.0,STARLINK-3557,PAYLOAD,2023-08-10 08:57:33,15.08848754,0.0001194,53.216,259.3344,77.1114,283.0012,2.1934e-05,6.1e-07,0.0,0 STARLINK-3557,1 51802U 22017AL  23222.37330212  .00000061  00000-0  21934-4 0  9990,2 51802  53.2160 259.3344 0001194  77.1114 283.0012 15.08848754 81668,6917.854,95.437,540.545,538.893,0.0
51802.0,STARLINK-3557,PAYLOAD,2023-08-11 02:26:48,15.08833616,0.0001214,53.2156,256.0636,76.212,283.9007,6.2802e-05,7.12e-06,0.0,0 STARLINK-3557,1 51802U 22017AL  23223.10194902  .00000712  00000-0  62802-4 0  9998,2 51802  53.2156 256.0636 0001214  76.2120 283.9007 15.08833616 81777,6917.9,95.438,540.605,538.925,0.0
51802.0,STARLINK-3557,PAYLOAD,2023-08-11 13:34:30,15.08840242,0.0001215,53.2161,253.9813,81.4373,278.6756,7.7278e-05,9.42e-06,0.0,0 STARLINK-3557,1 51802U 22017AL  23223.56562518  .00000942  00000-0  77278-4 0  9998,2 51802  53.2161 253.9813 0001215  81.4373 278.6756 15.08840242 81848,6917.88,95.438,540.585,538.904,0.0
51802.0,STARLINK-3557,PAYLOAD,2023-08-12 02:17:35,15.08837292,0.0001235,53.2161,251.6027,81.164,278.9492,-2.2021e-05,-6.38e-06,0.0,0 STARLINK-3557,1 51802U 22017AL  23224.09555045 -.00000638  00000-0 -22021-4 0  9994,2 51802  53.2161 251.6027 0001235  81.1640 278.9492 15.08837292 81926,6917.889,95.438,540.608,538.899,0.0
51802.0,STARLINK-3557,PAYLOAD,2023-08-12 18:11:26,15.08847587,0.0001246,53.2163,248.6288,84.5856,275.5279,-8.9968e-05,-1.72e-05,0.0,0 STARLINK-3557,1 51802U 22017AL  23224.75794563 -.00001720  00000-0 -89968-4 0  9993,2 51802  53.2163 248.6288 0001246  84.5856 275.5279 15.08847587 82027,6917.857,95.437,540.584,538.86,0.0
51802.0,STARLINK-3557,PAYLOAD,2023-08-13 18:02:14,15.08829805,0.0002527,53.2161,244.17,84.1602,275.9678,-6.2644e-05,-1.285e-05,0.0,0 STARLINK-3557,1 51802U 22017AL  23225.75156121 -.00001285  00000-0 -62644-4 0  9994,2 51802  53.2161 244.1700 0002527  84.1602 275.9678 15.08829805 82179,6917.912,95.438,541.525,538.028,0.0
